{
  "type": "FeatureCollection",
  "features": [
    {
      "type": "Feature",
      "geometry": {
        "type": "Polygon",
        "coordinates": [
          [
            [
              18.85975,
              -33.927957
            ],
            [
              18.859285,
              -33.927555
            ],
            [
              18.859031,
              -33.9271
            ],
            [
              18.858633,
              -33.927336
            ],
            [
              18.858211,
              -33.927232
            ],
            [
              18.857749,
              -33.927489
            ],
            [
              18.857434,
              -33.927635
            ],
            [
              18.857678,
              -33.928068
            ],
            [
              18.857652,
              -33.928723
            ],
            [
              18.857985,
              -33.928833
            ],
            [
              18.858637,
              -33.928921
            ],
            [
              18.859146,
              -33.928674
            ],
            [
              18.85931,
              -33.928478
            ],
            [
              18.85975,
              -33.927957
            ]
          ]
        ]
      },
      "properties": {
        "id": "B1",
        "name": "Bosberg Cabernet",
        "variety": "Cabernet Sauvignon",
        "wine_style": "premium_red",
        "area_ha": 2.78,
        "application_rate_mm_h": 2.0,
        "taw_mm": 120
      }
    },
    {
      "type": "Feature",
      "geometry": {
        "type": "Polygon",
        "coordinates": [
          [
            [
              18.867136,
              -33.930697
            ],
            [
              18.867209,
              -33.930486
            ],
            [
              18.86684,
              -33.93029
            ],
            [
              18.866541,
              -33.930148
            ],
            [
              18.865806,
              -33.929776
            ],
            [
              18.865298,
              -33.929947
            ],
            [
              18.865168,
              -33.930294
            ],
            [
              18.865308,
              -33.930737
            ],
            [
              18.865109,
              -33.931169
            ],
            [
              18.86558,
              -33.931466
            ],
            [
              18.866124,
              -33.931899
            ],
            [
              18.866515,
              -33.931595
            ],
            [
              18.867168,
              -33.931601
            ],
            [
              18.866998,
              -33.931094
            ],
            [
              18.867136,
              -33.930697
            ]
          ]
        ]
      },
      "properties": {
        "id": "B2",
        "name": "Skaliekop Shiraz",
        "variety": "Shiraz",
        "wine_style": "premium_red",
        "area_ha": 3.03,
        "application_rate_mm_h": 1.8,
        "taw_mm": 120
      }
    },
    {
      "type": "Feature",
      "geometry": {
        "type": "Polygon",
        "coordinates": [
          [
            [
              18.873837,
              -33.92919
            ],
            [
              18.873903,
              -33.928625
            ],
            [
              18.873586,
              -33.928328
            ],
            [
              18.873243,
              -33.928217
            ],
            [
              18.872708,
              -33.928664
            ],
            [
              18.872304,
              -33.928575
            ],
            [
              18.872269,
              -33.929148
            ],
            [
              18.872368,
              -33.929435
            ],
            [
              18.87272,
              -33.929738
            ],
            [
              18.873097,
              -33.929938
            ],
            [
              18.873465,
              -33.929905
            ],
            [
              18.873701,
              -33.929436
            ],
            [
              18.873837,
              -33.92919
            ]
          ]
        ]
      },
      "properties": {
        "id": "B3",
        "name": "Rivierkant Merlot",
        "variety": "Merlot",
        "wine_style": "red",
        "area_ha": 2.01,
        "application_rate_mm_h": 2.2,
        "taw_mm": 120
      }
    },
    {
      "type": "Feature",
      "geometry": {
        "type": "Polygon",
        "coordinates": [
          [
            [
              18.880309,
              -33.933213
            ],
            [
              18.880512,
              -33.932823
            ],
            [
              18.879799,
              -33.93267
            ],
            [
              18.879677,
              -33.932483
            ],
            [
              18.879124,
              -33.932696
            ],
            [
              18.878677,
              -33.932878
            ],
            [
              18.878942,
              -33.933495
            ],
            [
              18.879027,
              -33.933834
            ],
            [
              18.879396,
              -33.933928
            ],
            [
              18.87994,
              -33.933653
            ],
            [
              18.880196,
              -33.933527
            ],
            [
              18.880309,
              -33.933213
            ]
          ]
        ]
      },
      "properties": {
        "id": "B4",
        "name": "Windberg Pinotage",
        "variety": "Pinotage",
        "wine_style": "red",
        "area_ha": 1.65,
        "application_rate_mm_h": 2.0,
        "taw_mm": 110
      }
    },
    {
      "type": "Feature",
      "geometry": {
        "type": "Polygon",
        "coordinates": [
          [
            [
              18.862202,
              -33.94001
            ],
            [
              18.861995,
              -33.939512
            ],
            [
              18.861384,
              -33.939546
            ],
            [
              18.860924,
              -33.9392
            ],
            [
              18.860711,
              -33.939348
            ],
            [
              18.860075,
              -33.939127
            ],
            [
              18.859753,
              -33.93941
            ],
            [
              18.859305,
              -33.939918
            ],
            [
              18.859489,
              -33.940346
            ],
            [
              18.859679,
              -33.940847
            ],
            [
              18.86009,
              -33.941095
            ],
            [
              18.860774,
              -33.940837
            ],
            [
              18.861132,
              -33.941152
            ],
            [
              18.861441,
              -33.940724
            ],
            [
              18.861545,
              -33.940428
            ],
            [
              18.862202,
              -33.94001
            ]
          ]
        ]
      },
      "properties": {
        "id": "B5",
        "name": "Kloofstroom Chenin",
        "variety": "Chenin Blanc",
        "wine_style": "white",
        "area_ha": 3.79,
        "application_rate_mm_h": 2.4,
        "taw_mm": 130
      }
    },
    {
      "type": "Feature",
      "geometry": {
        "type": "Polygon",
        "coordinates": [
          [
            [
              18.870033,
              -33.94345
            ],
            [
              18.87039,
              -33.943133
            ],
            [
              18.869651,
              -33.943035
            ],
            [
              18.869197,
              -33.942774
            ],
            [
              18.868963,
              -33.942659
            ],
            [
              18.868342,
              -33.943158
            ],
            [
              18.868195,
              -33.943587
            ],
            [
              18.868626,
              -33.94402
            ],
            [
              18.868778,
              -33.944143
            ],
            [
              18.869466,
              -33.944177
            ],
            [
              18.86977,
              -33.944004
            ],
            [
              18.87019,
              -33.94386
            ],
            [
              18.870033,
              -33.94345
            ]
          ]
        ]
      },
      "properties": {
        "id": "B6",
        "name": "M\u00f4relig Sauvignon",
        "variety": "Sauvignon Blanc",
        "wine_style": "fresh_white",
        "area_ha": 2.14,
        "application_rate_mm_h": 2.4,
        "taw_mm": 120
      }
    },
    {
      "type": "Feature",
      "geometry": {
        "type": "Polygon",
        "coordinates": [
          [
            [
              18.877968,
              -33.946252
            ],
            [
              18.878024,
              -33.94576
            ],
            [
              18.877659,
              -33.945822
            ],
            [
              18.877218,
              -33.945378
            ],
            [
              18.876857,
              -33.945573
            ],
            [
              18.876559,
              -33.945846
            ],
            [
              18.876251,
              -33.946119
            ],
            [
              18.876631,
              -33.946425
            ],
            [
              18.876567,
              -33.946703
            ],
            [
              18.876916,
              -33.946666
            ],
            [
              18.877227,
              -33.946781
            ],
            [
              18.877737,
              -33.946767
            ],
            [
              18.877986,
              -33.946508
            ],
            [
              18.877968,
              -33.946252
            ]
          ]
        ]
      },
      "properties": {
        "id": "B7",
        "name": "Leiwater Chardonnay",
        "variety": "Chardonnay",
        "wine_style": "white",
        "area_ha": 1.65,
        "application_rate_mm_h": 2.2,
        "taw_mm": 120
      }
    }
  ]
}
